NOAA 19                 
1 33591U 09005A   23054.22597486  .00000218  00000+0  14220-3 0  9994
2 33591  99.1172  98.2488 0013651 199.9137 160.1503 14.12693302723858
